[{"OBJECT_NAME":"STARLINK-30787","OBJECT_ID":"2023-162L","EPOCH":"2026-01-15T02:48:52.103808","MEAN_MOTION":15.02534416,"ECCENTRICITY":0.0001377,"INCLINATION":43.0041,"RA_OF_ASC_NODE":63.9903,"ARG_OF_PERICENTER":267.8971,"MEAN_ANOMALY":92.1713,"EPHEMERIS_TYPE":0,"CLASSIFICATION_TYPE":"U","NORAD_CAT_ID":58128,"ELEMENT_SET_NO":999,"REV_AT_EPOCH":12424,"BSTAR":0.00013785,"MEAN_MOTION_DOT":1.659e-5,"MEAN_MOTION_DDOT":0},{"OBJECT_NAME":"STARLINK-30756","OBJECT_ID":"2023-162M","EPOCH":"2026-01-15T03:32:00.370464","MEAN_MOTION":15.02542433,"ECCENTRICITY":0.0001419,"INCLINATION":43.0051,"RA_OF_ASC_NODE":64.1969,"ARG_OF_PERICENTER":275.9558,"MEAN_ANOMALY":84.1123,"EPHEMERIS_TYPE":0,"CLASSIFICATION_TYPE":"U","NORAD_CAT_ID":58129,"ELEMENT_SET_NO":999,"REV_AT_EPOCH":12424,"BSTAR":0.00014038,"MEAN_MOTION_DOT":1.693e-5,"MEAN_MOTION_DDOT":0},{"OBJECT_NAME":"STARLINK-30783","OBJECT_ID":"2023-162N","EPOCH":"2026-01-15T04:19:47.910432","MEAN_MOTION":15.02539602,"ECCENTRICITY":0.0001293,"INCLINATION":43.0041,"RA_OF_ASC_NODE":63.6031,"ARG_OF_PERICENTER":275.1882,"MEAN_ANOMALY":84.8812,"EPHEMERIS_TYPE":0,"CLASSIFICATION_TYPE":"U","NORAD_CAT_ID":58130,"ELEMENT_SET_NO":999,"REV_AT_EPOCH":12425,"BSTAR":3.0306e-5,"MEAN_MOTION_DOT":2.06e-6,"MEAN_MOTION_DDOT":0},{"OBJECT_NAME":"STARLINK-30757","OBJECT_ID":"2023-162P","EPOCH":"2026-01-15T02:39:16.692768","MEAN_MOTION":15.02535023,"ECCENTRICITY":0.0001382,"INCLINATION":43.0044,"RA_OF_ASC_NODE":63.9379,"ARG_OF_PERICENTER":280.9178,"MEAN_ANOMALY":79.1509,"EPHEMERIS_TYPE":0,"CLASSIFICATION_TYPE":"U","NORAD_CAT_ID":58131,"ELEMENT_SET_NO":999,"REV_AT_EPOCH":12424,"BSTAR":8.7893e-5,"MEAN_MOTION_DOT":9.84e-6,"MEAN_MOTION_DDOT":0},{"OBJECT_NAME":"STARLINK-30770","OBJECT_ID":"2023-162Q","EPOCH":"2026-01-15T03:27:13.353120","MEAN_MOTION":15.02538701,"ECCENTRICITY":0.0001242,"INCLINATION":43.004,"RA_OF_ASC_NODE":64.1632,"ARG_OF_PERICENTER":271.0048,"MEAN_ANOMALY":89.0652,"EPHEMERIS_TYPE":0,"CLASSIFICATION_TYPE":"U","NORAD_CAT_ID":58132,"ELEMENT_SET_NO":999,"REV_AT_EPOCH":12424,"BSTAR":3.0462e-5,"MEAN_MOTION_DOT":2.08e-6,"MEAN_MOTION_DDOT":0},{"OBJECT_NAME":"STARLINK-30758","OBJECT_ID":"2023-162R","EPOCH":"2026-01-15T04:13:24.104352","MEAN_MOTION":15.02537763,"ECCENTRICITY":0.0001989,"INCLINATION":43.0042,"RA_OF_ASC_NODE":63.5683,"ARG_OF_PERICENTER":280.775,"MEAN_ANOMALY":79.2868,"EPHEMERIS_TYPE":0,"CLASSIFICATION_TYPE":"U","NORAD_CAT_ID":58133,"ELEMENT_SET_NO":999,"REV_AT_EPOCH":12425,"BSTAR":7.8544e-5,"MEAN_MOTION_DOT":8.57e-6,"MEAN_MOTION_DDOT":0},{"OBJECT_NAME":"STARLINK-30761","OBJECT_ID":"2023-162S","EPOCH":"2026-01-15T03:22:26.493888","MEAN_MOTION":15.02547806,"ECCENTRICITY":0.0001296,"INCLINATION":43.0031,"RA_OF_ASC_NODE":64.1469,"ARG_OF_PERICENTER":266.1164,"MEAN_ANOMALY":93.953,"EPHEMERIS_TYPE":0,"CLASSIFICATION_TYPE":"U","NORAD_CAT_ID":58134,"ELEMENT_SET_NO":999,"REV_AT_EPOCH":12424,"BSTAR":-0.00050361,"MEAN_MOTION_DOT":-7.002e-5,"MEAN_MOTION_DDOT":0},{"OBJECT_NAME":"STARLINK-30772","OBJECT_ID":"2023-162T","EPOCH":"2026-01-15T04:10:23.752128","MEAN_MOTION":15.02528172,"ECCENTRICITY":0.000126,"INCLINATION":43.0025,"RA_OF_ASC_NODE":64.3972,"ARG_OF_PERICENTER":281.6813,"MEAN_ANOMALY":78.3888,"EPHEMERIS_TYPE":0,"CLASSIFICATION_TYPE":"U","NORAD_CAT_ID":58135,"ELEMENT_SET_NO":999,"REV_AT_EPOCH":12424,"BSTAR":0.00010974,"MEAN_MOTION_DOT":1.279e-5,"MEAN_MOTION_DDOT":0},{"OBJECT_NAME":"STARLINK-30776","OBJECT_ID":"2023-162U","EPOCH":"2026-01-15T03:57:35.342496","MEAN_MOTION":15.02537522,"ECCENTRICITY":0.000128,"INCLINATION":43.0017,"RA_OF_ASC_NODE":64.3066,"ARG_OF_PERICENTER":266.0234,"MEAN_ANOMALY":94.0462,"EPHEMERIS_TYPE":0,"CLASSIFICATION_TYPE":"U","NORAD_CAT_ID":58136,"ELEMENT_SET_NO":999,"REV_AT_EPOCH":12424,"BSTAR":3.7979e-5,"MEAN_MOTION_DOT":3.09e-6,"MEAN_MOTION_DDOT":0},{"OBJECT_NAME":"STARLINK-30782","OBJECT_ID":"2023-162V","EPOCH":"2026-01-15T04:00:47.026080","MEAN_MOTION":15.02537144,"ECCENTRICITY":0.0001471,"INCLINATION":43.0032,"RA_OF_ASC_NODE":64.3482,"ARG_OF_PERICENTER":270.7471,"MEAN_ANOMALY":89.3203,"EPHEMERIS_TYPE":0,"CLASSIFICATION_TYPE":"U","NORAD_CAT_ID":58137,"ELEMENT_SET_NO":999,"REV_AT_EPOCH":12424,"BSTAR":0.0001123,"MEAN_MOTION_DOT":1.314e-5,"MEAN_MOTION_DDOT":0},{"OBJECT_NAME":"STARLINK-30769","OBJECT_ID":"2023-162W","EPOCH":"2026-01-15T03:51:11.556288","MEAN_MOTION":15.02541839,"ECCENTRICITY":0.000158,"INCLINATION":43.0036,"RA_OF_ASC_NODE":64.2987,"ARG_OF_PERICENTER":280.4486,"MEAN_ANOMALY":79.6179,"EPHEMERIS_TYPE":0,"CLASSIFICATION_TYPE":"U","NORAD_CAT_ID":58138,"ELEMENT_SET_NO":999,"REV_AT_EPOCH":12424,"BSTAR":6.303e-5,"MEAN_MOTION_DOT":6.48e-6,"MEAN_MOTION_DDOT":0},{"OBJECT_NAME":"STARLINK-30775","OBJECT_ID":"2023-162X","EPOCH":"2026-01-15T03:55:59.264832","MEAN_MOTION":15.02542276,"ECCENTRICITY":5.32e-5,"INCLINATION":42.9997,"RA_OF_ASC_NODE":64.3219,"ARG_OF_PERICENTER":273.1264,"MEAN_ANOMALY":86.9517,"EPHEMERIS_TYPE":0,"CLASSIFICATION_TYPE":"U","NORAD_CAT_ID":58139,"ELEMENT_SET_NO":999,"REV_AT_EPOCH":12424,"BSTAR":-0.00018289,"MEAN_MOTION_DOT":-2.673e-5,"MEAN_MOTION_DDOT":0},{"OBJECT_NAME":"STARLINK-30780","OBJECT_ID":"2023-162Y","EPOCH":"2026-01-15T03:46:24.336768","MEAN_MOTION":15.02536367,"ECCENTRICITY":0.0001426,"INCLINATION":43.0046,"RA_OF_ASC_NODE":64.2722,"ARG_OF_PERICENTER":271.6532,"MEAN_ANOMALY":88.4147,"EPHEMERIS_TYPE":0,"CLASSIFICATION_TYPE":"U","NORAD_CAT_ID":58140,"ELEMENT_SET_NO":999,"REV_AT_EPOCH":12424,"BSTAR":1.1944e-5,"MEAN_MOTION_DOT":-4.2e-7,"MEAN_MOTION_DDOT":0},{"OBJECT_NAME":"STARLINK-30802","OBJECT_ID":"2023-166A","EPOCH":"2026-01-14T15:59:40.873920","MEAN_MOTION":15.30196345,"ECCENTRICITY":0.0001141,"INCLINATION":53.1598,"RA_OF_ASC_NODE":110.848,"ARG_OF_PERICENTER":92.9903,"MEAN_ANOMALY":267.1228,"EPHEMERIS_TYPE":0,"CLASSIFICATION_TYPE":"U","NORAD_CAT_ID":58150,"ELEMENT_SET_NO":999,"REV_AT_EPOCH":12490,"BSTAR":3.4469e-5,"MEAN_MOTION_DOT":6.62e-6,"MEAN_MOTION_DDOT":0},{"OBJECT_NAME":"STARLINK-30834","OBJECT_ID":"2023-166B","EPOCH":"2026-01-14T12:57:36.489024","MEAN_MOTION":15.3020209,"ECCENTRICITY":9.11e-5,"INCLINATION":53.1586,"RA_OF_ASC_NODE":111.2758,"ARG_OF_PERICENTER":105.2408,"MEAN_ANOMALY":254.8694,"EPHEMERIS_TYPE":0,"CLASSIFICATION_TYPE":"U","NORAD_CAT_ID":58151,"ELEMENT_SET_NO":999,"REV_AT_EPOCH":12488,"BSTAR":0.00057155,"MEAN_MOTION_DOT":0.00016608,"MEAN_MOTION_DDOT":0},{"OBJECT_NAME":"STARLINK-30833","OBJECT_ID":"2023-166C","EPOCH":"2026-01-14T12:48:32.812704","MEAN_MOTION":15.30185219,"ECCENTRICITY":0.0001366,"INCLINATION":53.1614,"RA_OF_ASC_NODE":111.4399,"ARG_OF_PERICENTER":89.7978,"MEAN_ANOMALY":270.318,"EPHEMERIS_TYPE":0,"CLASSIFICATION_TYPE":"U","NORAD_CAT_ID":58152,"ELEMENT_SET_NO":999,"REV_AT_EPOCH":12488,"BSTAR":2.3117e-5,"MEAN_MOTION_DOT":3.25e-6,"MEAN_MOTION_DDOT":0},{"OBJECT_NAME":"STARLINK-30831","OBJECT_ID":"2023-166D","EPOCH":"2026-01-14T15:32:20.116320","MEAN_MOTION":15.30181339,"ECCENTRICITY":0.0001238,"INCLINATION":53.1603,"RA_OF_ASC_NODE":110.7464,"ARG_OF_PERICENTER":79.3175,"MEAN_ANOMALY":280.7965,"EPHEMERIS_TYPE":0,"CLASSIFICATION_TYPE":"U","NORAD_CAT_ID":58153,"ELEMENT_SET_NO":999,"REV_AT_EPOCH":12490,"BSTAR":0.00018689,"MEAN_MOTION_DOT":5.177e-5,"MEAN_MOTION_DDOT":0},{"OBJECT_NAME":"STARLINK-30797","OBJECT_ID":"2023-166E","EPOCH":"2026-01-14T13:02:10.065120","MEAN_MOTION":15.30202822,"ECCENTRICITY":0.0001256,"INCLINATION":53.1579,"RA_OF_ASC_NODE":111.2891,"ARG_OF_PERICENTER":96.0426,"MEAN_ANOMALY":264.0717,"EPHEMERIS_TYPE":0,"CLASSIFICATION_TYPE":"U","NORAD_CAT_ID":58154,"ELEMENT_SET_NO":999,"REV_AT_EPOCH":12473,"BSTAR":0.00019435,"MEAN_MOTION_DOT":5.402e-5,"MEAN_MOTION_DDOT":0},{"OBJECT_NAME":"STARLINK-30804","OBJECT_ID":"2023-166F","EPOCH":"2026-01-14T15:47:32.076960","MEAN_MOTION":15.30190514,"ECCENTRICITY":0.000132,"INCLINATION":53.1598,"RA_OF_ASC_NODE":110.8099,"ARG_OF_PERICENTER":84.451,"MEAN_ANOMALY":275.6641,"EPHEMERIS_TYPE":0,"CLASSIFICATION_TYPE":"U","NORAD_CAT_ID":58155,"ELEMENT_SET_NO":999,"REV_AT_EPOCH":12490,"BSTAR":3.0374e-5,"MEAN_MOTION_DOT":5.4e-6,"MEAN_MOTION_DDOT":0},{"OBJECT_NAME":"STARLINK-30784","OBJECT_ID":"2023-166G","EPOCH":"2026-01-14T12:53:06.030240","MEAN_MOTION":15.30197528,"ECCENTRICITY":0.0001349,"INCLINATION":53.1586,"RA_OF_ASC_NODE":111.4655,"ARG_OF_PERICENTER":75.2465,"MEAN_ANOMALY":284.8685,"EPHEMERIS_TYPE":0,"CLASSIFICATION_TYPE":"U","NORAD_CAT_ID":58156,"ELEMENT_SET_NO":999,"REV_AT_EPOCH":12473,"BSTAR":6.2289e-5,"MEAN_MOTION_DOT":1.486e-5,"MEAN_MOTION_DDOT":0},{"OBJECT_NAME":"STARLINK-30803","OBJECT_ID":"2023-166H","EPOCH":"2026-01-14T15:27:46.280160","MEAN_MOTION":15.30194406,"ECCENTRICITY":0.000118,"INCLINATION":53.1595,"RA_OF_ASC_NODE":110.7092,"ARG_OF_PERICENTER":81.649,"MEAN_ANOMALY":278.4645,"EPHEMERIS_TYPE":0,"CLASSIFICATION_TYPE":"U","NORAD_CAT_ID":58157,"ELEMENT_SET_NO":999,"REV_AT_EPOCH":12475,"BSTAR":1.6908e-5,"MEAN_MOTION_DOT":1.42e-6,"MEAN_MOTION_DDOT":0},{"OBJECT_NAME":"STARLINK-30829","OBJECT_ID":"2023-166J","EPOCH":"2026-01-14T12:43:58.497024","MEAN_MOTION":15.30183898,"ECCENTRICITY":0.0001236,"INCLINATION":53.1597,"RA_OF_ASC_NODE":111.4323,"ARG_OF_PERICENTER":81.1667,"MEAN_ANOMALY":278.9474,"EPHEMERIS_TYPE":0,"CLASSIFICATION_TYPE":"U","NORAD_CAT_ID":58158,"ELEMENT_SET_NO":999,"REV_AT_EPOCH":12488,"BSTAR":0.00013515,"MEAN_MOTION_DOT":3.644e-5,"MEAN_MOTION_DDOT":0},{"OBJECT_NAME":"STARLINK-30788","OBJECT_ID":"2023-166K","EPOCH":"2026-01-14T12:34:51.871008","MEAN_MOTION":15.30182531,"ECCENTRICITY":0.0001281,"INCLINATION":53.1605,"RA_OF_ASC_NODE":111.3941,"ARG_OF_PERICENTER":95.2698,"MEAN_ANOMALY":264.8449,"EPHEMERIS_TYPE":0,"CLASSIFICATION_TYPE":"U","NORAD_CAT_ID":58159,"ELEMENT_SET_NO":999,"REV_AT_EPOCH":12473,"BSTAR":9.3782e-5,"MEAN_MOTION_DOT":2.418e-5,"MEAN_MOTION_DDOT":0}]
